GSAT-17                 
1 42815U 17040B   26161.42970080 -.00000240  00000+0  00000+0 0  9993
2 42815   0.1089  88.1337 0001612 210.7842 208.0763  1.00271114 32721
INTELSAT 35E (IS-35E)   
1 42818U 17041A   26161.33306772 -.00000220  00000+0  00000+0 0  9996
2 42818   0.0042  73.2887 0001671   4.7261 266.1135  1.00271307 32742
COSMOS 2520             
1 42907U 17046A   26159.63781562  .00000153  00000+0  00000+0 0  9998
2 42907   0.0442  86.9350 0001169  55.5058  29.2057  1.00270113 32319
TDRS 13                 
1 42915U 17047A   26161.45359016 -.00000085  00000+0  00000+0 0  9991
2 42915   3.4498   2.5513 0014533 105.7433 302.3757  1.00271734 32283
QZS-3 (MICHIBIKI-3)     
1 42917U 17048A   26161.50530882 -.00000331  00000+0  00000+0 0  9996
2 42917   0.0569 174.0853 0002589 274.1258 119.5722  1.00268300 32198
AMAZONAS 5              
1 42934U 17053A   26160.32980735 -.00000266  00000+0  00000+0 0  9993
2 42934   0.0312 323.9850 0002412  64.7103 286.7531  1.00270254 31962
ASIASAT 9               
1 42942U 17057A   26160.65125072 -.00000342  00000+0  00000+0 0  9992
2 42942   0.0120  84.3178 0002406 351.8424 178.4194  1.00270665 31786
INTELSAT 37E (IS-37E)   
1 42950U 17059A   26161.31711630 -.00000123  00000+0  00000+0 0  9995
2 42950   0.0043  78.2473 0002381  24.2615 252.3325  1.00270044 31996
BSAT-4A                 
1 42951U 17059B   26160.00712714 -.00000334  00000+0  00000+0 0  9999
2 42951   0.0365   6.7991 0004164  58.5529 304.4340  1.00272912 31712
QZS-4 (MICHIBIKI-4)     
1 42965U 17062A   26161.36564780 -.00000314  00000+0  00000+0 0  9994
2 42965  40.1123 343.5704 0745142 271.6178 272.7130  1.00252759 31737
SES-11 (ECHOSTAR 105)   
1 42967U 17063A   26160.67756544 -.00000072  00000+0  00000+0 0  9992
2 42967   0.0151 352.2876 0002679  98.2971 306.4353  1.00270770 31642
KOREASAT 5A             
1 42984U 17067A   26161.43360080 -.00000341  00000+0  00000+0 0  9995
2 42984   0.0084 326.0092 0000507 126.1367  75.9019  1.00270314 31464
ALCOMSAT 1              
1 43039U 17078A   26161.30600352 -.00000168  00000+0  00000+0 0  9991
2 43039   0.0384  74.2549 0002287   0.9276 268.8594  1.00272250 31229
SBIRS GEO-3 (USA 282)   
1 43162U 18009A   26161.51711372  .00000144  00000+0  00000+0 0  9994
2 43162   2.1789  11.7602 0001959  62.5093 211.3747  1.00272026 30773
AL YAH 3                
1 43174U 18012A   26161.33592773 -.00000138  00000+0  00000+0 0  9997
2 43174   1.5332  83.1895 0004026 356.3531 279.9963  1.00270951 30774
SES-14                  
1 43175U 18012B   26160.47501219 -.00000261  00000+0  00000+0 0  9994
2 43175   0.0220  31.0141 0001057  53.8990 296.4420  1.00270313  6946
GOES 17                 
1 43226U 18022A   26161.32223433 -.00000165  00000+0  00000+0 0  9999
2 43226   0.9188  85.8364 0000530  18.3220 181.0438  1.00271216 30359
HISPASAT 30W-6          
1 43228U 18023A   26160.19333439 -.00000199  00000+0  00000+0 0  9991
2 43228   0.0466  43.0702 0006065  24.4046 229.6971  1.00270107 30322
SUPERBIRD-B3            
1 43271U 18033A   26161.46503130 -.00000075  00000+0  00000+0 0  9991
2 43271   0.0143 302.7667 0001232 161.5257 123.9476  1.00270646 29990
HYLAS 4                 
1 43272U 18033B   26160.47778553 -.00000216  00000+0  00000+0 0  9992
2 43272   0.0194  57.3369 0001003  29.6517 309.4007  1.00269264 29982
IRNSS-1I                
1 43286U 18035A   26160.85164676  .00000089  00000+0  00000+0 0  9993
2 43286  28.7370  74.3113 0017838 182.3918   2.9871  1.00270544 30003
USA 283                 
1 43339U 18036A   26158.44341078  .00000000  00000+0  00000+0 0  9991
2 43339   0.0123 333.7419 0000458 159.1187  56.7029  1.00268454 25195
COSMOS 2526             
1 43432U 18037A   26160.29595498 -.00000327  00000+0  00000+0 0  9992
2 43432   0.0147  11.4942 0000463 198.5933 282.2090  1.00274990 29884
APSTAR-6C               
1 43450U 18041A   26161.50905568 -.00000300  00000+0  00000+0 0  9996
2 43450   0.0242 336.9769 0001144  13.4178 225.7512  1.00272120 29744
BANGABANDHUSAT-1        
1 43463U 18044A   26161.43481413  .00000000  00000+0  00000+0 0  9999
2 43463   0.0173 350.4797 0001713  92.8633  91.0766  1.00268064 29648
SES-12                  
1 43488U 18049A   26160.84191638 -.00000252  00000+0  00000+0 0  9992
2 43488   0.0287  45.0830 0000922 240.6472  10.5699  1.00269142 29347
FENGYUN 2H              
1 43491U 18050A   26161.49828117 -.00000114  00000+0  00000+0 0  9996
2 43491   3.0128  79.1544 0001685 128.6364 309.8929  1.00270758 29378
BEIDOU-2 IGSO-7         
1 43539U 18057A   26161.43299414  .00000040  00000+0  00000+0 0  9999
2 43539  55.1935 163.1168 0104879 237.9408 124.0886  1.00253264 29061
TELSTAR 19V             
1 43562U 18059A   26160.04519647 -.00000262  00000+0  00000+0 0  9993
2 43562   0.0357 175.1217 0003228 305.1580  90.4046  1.00255741 29063
TELKOM 4 (MERAH PUTIH)  
1 43587U 18064A   26161.43264748  .00000000  00000+0  00000+0 0  9998
2 43587   0.0187 356.0426 0001311 119.6839  46.8152  1.00267857 28815
TELSTAR 18V             
1 43611U 18069A   26161.43655905 -.00000276  00000+0  00000+0 0  9996
2 43611   0.0163 294.0934 0001748 143.1303 116.7489  1.00270002 28573
AZERSPACE 2 (IS-38)     
1 43632U 18074A   26161.20628475  .00000154  00000+0  00000+0 0  9996
2 43632   0.0026  68.5663 0001233  12.8664 296.5131  1.00271658 28375
